KUIPER-00044            
1 64505U 25134F   26192.02759081  .00001776  00000+0  26193-3 0  9991
2 64505  51.8985  60.1566 0000688 109.6422 250.4614 14.79936293 58163
KUIPER-00046            
1 64506U 25134G   26190.37581065  .00002192  00000+0  31655-3 0  9995
2 64506  51.8987  64.9372 0000680 108.4902 251.6134 14.79920612 57959
KUIPER-00047            
1 64507U 25134H   26189.83146939  .00001968  00000+0  28718-3 0  9998
2 64507  51.8993  39.8671 0000717 102.7578 257.3465 14.79924993 58257
KUIPER-00048            
1 64508U 25134J   26191.95866830  .00001669  00000+0  24800-3 0  9990
2 64508  51.9002  30.4735 0000740 109.1342 250.9700 14.79922053 58575
KUIPER-00049            
1 64509U 25134K   26191.97893462  .00001872  00000+0  27454-3 0  9998
2 64509  51.8998  42.8496 0000647 109.9203 250.1829 14.79934603 58400
KUIPER-00050            
1 64510U 25134L   26189.97192331  .00002054  00000+0  29843-3 0  9991
2 64510  51.9003  34.2459 0000740 110.9821 249.1221 14.79924471 58356
KUIPER-00051            
1 64511U 25134M   26191.95496073  .00001918  00000+0  28058-3 0  9998
2 64511  51.9004  41.6490 0000785 117.6867 242.4175 14.79927573 58415
KUIPER-00053            
1 64513U 25134P   26191.98049081  .00001271  00000+0  18806-3 0  9998
2 64513  51.9007  36.8301 0000272 329.0640  31.0306 14.81682639 58485
KUIPER-00054            
1 64514U 25134Q   26189.99759858  .00002128  00000+0  30824-3 0  9993
2 64514  51.8980  41.6251 0000836 110.5593 249.5460 14.79906563 58242
KUIPER-00055            
1 64515U 25134R   26191.43320675  .00002379  00000+0  34099-3 0  9993
2 64515  51.9020 347.9077 0000614 110.3998 249.7031 14.79936716 59125
KUIPER-00056            
1 64516U 25134S   26191.98434263  .00001987  00000+0  28954-3 0  9990
2 64516  51.9027  37.9339 0000702 106.7544 253.3496 14.79935017 58470
KUIPER-00057            
1 64517U 25134T   26192.17881770  .00002280  00000+0  32791-3 0  9993
2 64517  51.9001  44.5041 0000785 112.4375 247.6670 14.79939754 58397
KUIPER-00058            
1 64518U 25134U   26191.00245811  .00002237  00000+0  32244-3 0  9990
2 64518  51.9001  44.6772 0000632 115.4747 244.6281 14.79924458 58296
KUIPER-00059            
1 64519U 25134V   26191.00785248  .00002245  00000+0  32341-3 0  9991
2 64519  51.8998  39.6940 0000812 109.6047 250.5003 14.79932012 58361
KUIPER-00060            
1 64520U 25134W   26191.98704183  .00001620  00000+0  24144-3 0  9997
2 64520  51.9018  35.4275 0000612  98.6251 261.4781 14.79936445 58496
KUIPER-00061            
1 64521U 25134X   26192.21528138  .00002157  00000+0  31211-3 0  9998
2 64521  51.9012  41.8698 0000849  93.8137 266.2923 14.79902092 58428
