{"fetched_at":"2026-07-11T09:23:55.576Z","source":"https://celestrak.org/NORAD/elements/gp.php?GROUP=kuiper&FORMAT=JSON","constellation":"kuiper","records":[{"OBJECT_NAME":"KUIPER-00044","OBJECT_ID":"2025-134F","EPOCH":"2026-07-11T00:39:43.845984","CLASSIFICATION_TYPE":"U","MEAN_MOTION":14.79936293,"ECCENTRICITY":0.0000688,"INCLINATION":51.8985,"RA_OF_ASC_NODE":60.1566,"ARG_OF_PERICENTER":109.6422,"MEAN_ANOMALY":250.4614,"EPHEMERIS_TYPE":0,"NORAD_CAT_ID":64505,"ELEMENT_SET_NO":999,"REV_AT_EPOCH":5816,"BSTAR":0.00026193,"MEAN_MOTION_DOT":0.00001776,"MEAN_MOTION_DDOT":0},{"OBJECT_NAME":"KUIPER-00046","OBJECT_ID":"2025-134G","EPOCH":"2026-07-09T09:01:10.040160","CLASSIFICATION_TYPE":"U","MEAN_MOTION":14.79920612,"ECCENTRICITY":0.00006804,"INCLINATION":51.8987,"RA_OF_ASC_NODE":64.9372,"ARG_OF_PERICENTER":108.4902,"MEAN_ANOMALY":251.6134,"EPHEMERIS_TYPE":0,"NORAD_CAT_ID":64506,"ELEMENT_SET_NO":999,"REV_AT_EPOCH":5795,"BSTAR":0.00031655366,"MEAN_MOTION_DOT":0.00002192,"MEAN_MOTION_DDOT":0},{"OBJECT_NAME":"KUIPER-00047","OBJECT_ID":"2025-134H","EPOCH":"2026-07-08T19:57:18.955296","CLASSIFICATION_TYPE":"U","MEAN_MOTION":14.79924993,"ECCENTRICITY":0.00007175,"INCLINATION":51.8993,"RA_OF_ASC_NODE":39.8671,"ARG_OF_PERICENTER":102.7578,"MEAN_ANOMALY":257.3465,"EPHEMERIS_TYPE":0,"NORAD_CAT_ID":64507,"ELEMENT_SET_NO":999,"REV_AT_EPOCH":5825,"BSTAR":0.00028718253,"MEAN_MOTION_DOT":0.00001968,"MEAN_MOTION_DDOT":0},{"OBJECT_NAME":"KUIPER-00048","OBJECT_ID":"2025-134J","EPOCH":"2026-07-10T23:00:28.941120","CLASSIFICATION_TYPE":"U","MEAN_MOTION":14.79922053,"ECCENTRICITY":0.000074,"INCLINATION":51.9002,"RA_OF_ASC_NODE":30.4735,"ARG_OF_PERICENTER":109.1342,"MEAN_ANOMALY":250.97,"EPHEMERIS_TYPE":0,"NORAD_CAT_ID":64508,"ELEMENT_SET_NO":999,"REV_AT_EPOCH":5857,"BSTAR":0.000248,"MEAN_MOTION_DOT":0.00001669,"MEAN_MOTION_DDOT":0},{"OBJECT_NAME":"KUIPER-00049","OBJECT_ID":"2025-134K","EPOCH":"2026-07-10T23:29:39.951168","CLASSIFICATION_TYPE":"U","MEAN_MOTION":14.79934603,"ECCENTRICITY":0.0000647,"INCLINATION":51.8998,"RA_OF_ASC_NODE":42.8496,"ARG_OF_PERICENTER":109.9203,"MEAN_ANOMALY":250.1829,"EPHEMERIS_TYPE":0,"NORAD_CAT_ID":64509,"ELEMENT_SET_NO":999,"REV_AT_EPOCH":5840,"BSTAR":0.00027454,"MEAN_MOTION_DOT":0.00001872,"MEAN_MOTION_DDOT":0},{"OBJECT_NAME":"KUIPER-00050","OBJECT_ID":"2025-134L","EPOCH":"2026-07-08T23:19:34.173984","CLASSIFICATION_TYPE":"U","MEAN_MOTION":14.79924471,"ECCENTRICITY":0.00007403,"INCLINATION":51.9003,"RA_OF_ASC_NODE":34.2459,"ARG_OF_PERICENTER":110.9821,"MEAN_ANOMALY":249.1221,"EPHEMERIS_TYPE":0,"NORAD_CAT_ID":64510,"ELEMENT_SET_NO":999,"REV_AT_EPOCH":5835,"BSTAR":0.00029843058,"MEAN_MOTION_DOT":0.00002054,"MEAN_MOTION_DDOT":0},{"OBJECT_NAME":"KUIPER-00051","OBJECT_ID":"2025-134M","EPOCH":"2026-07-10T22:55:08.607072","CLASSIFICATION_TYPE":"U","MEAN_MOTION":14.79927573,"ECCENTRICITY":0.0000785,"INCLINATION":51.9004,"RA_OF_ASC_NODE":41.649,"ARG_OF_PERICENTER":117.6867,"MEAN_ANOMALY":242.4175,"EPHEMERIS_TYPE":0,"NORAD_CAT_ID":64511,"ELEMENT_SET_NO":999,"REV_AT_EPOCH":5841,"BSTAR":0.00028058,"MEAN_MOTION_DOT":0.00001918,"MEAN_MOTION_DDOT":0},{"OBJECT_NAME":"KUIPER-00053","OBJECT_ID":"2025-134P","EPOCH":"2026-07-10T23:31:54.405984","CLASSIFICATION_TYPE":"U","MEAN_MOTION":14.81682639,"ECCENTRICITY":0.0000272,"INCLINATION":51.9007,"RA_OF_ASC_NODE":36.8301,"ARG_OF_PERICENTER":329.064,"MEAN_ANOMALY":31.0306,"EPHEMERIS_TYPE":0,"NORAD_CAT_ID":64513,"ELEMENT_SET_NO":999,"REV_AT_EPOCH":5848,"BSTAR":0.00018806,"MEAN_MOTION_DOT":0.00001271,"MEAN_MOTION_DDOT":0},{"OBJECT_NAME":"KUIPER-00054","OBJECT_ID":"2025-134Q","EPOCH":"2026-07-08T23:56:32.517312","CLASSIFICATION_TYPE":"U","MEAN_MOTION":14.79906563,"ECCENTRICITY":0.00008367,"INCLINATION":51.898,"RA_OF_ASC_NODE":41.6251,"ARG_OF_PERICENTER":110.5593,"MEAN_ANOMALY":249.546,"EPHEMERIS_TYPE":0,"NORAD_CAT_ID":64514,"ELEMENT_SET_NO":999,"REV_AT_EPOCH":5824,"BSTAR":0.00030824265,"MEAN_MOTION_DOT":0.00002128,"MEAN_MOTION_DDOT":0},{"OBJECT_NAME":"KUIPER-00055","OBJECT_ID":"2025-134R","EPOCH":"2026-07-10T10:23:49.063200","CLASSIFICATION_TYPE":"U","MEAN_MOTION":14.79936716,"ECCENTRICITY":0.00006146,"INCLINATION":51.902,"RA_OF_ASC_NODE":347.9077,"ARG_OF_PERICENTER":110.3998,"MEAN_ANOMALY":249.7031,"EPHEMERIS_TYPE":0,"NORAD_CAT_ID":64515,"ELEMENT_SET_NO":999,"REV_AT_EPOCH":5912,"BSTAR":0.00034098798,"MEAN_MOTION_DOT":0.00002379,"MEAN_MOTION_DDOT":0},{"OBJECT_NAME":"KUIPER-00056","OBJECT_ID":"2025-134S","EPOCH":"2026-07-10T23:37:27.203232","CLASSIFICATION_TYPE":"U","MEAN_MOTION":14.79935017,"ECCENTRICITY":0.0000702,"INCLINATION":51.9027,"RA_OF_ASC_NODE":37.9339,"ARG_OF_PERICENTER":106.7544,"MEAN_ANOMALY":253.3496,"EPHEMERIS_TYPE":0,"NORAD_CAT_ID":64516,"ELEMENT_SET_NO":999,"REV_AT_EPOCH":5847,"BSTAR":0.00028954,"MEAN_MOTION_DOT":0.00001987,"MEAN_MOTION_DDOT":0},{"OBJECT_NAME":"KUIPER-00057","OBJECT_ID":"2025-134T","EPOCH":"2026-07-11T04:17:29.849280","CLASSIFICATION_TYPE":"U","MEAN_MOTION":14.79939754,"ECCENTRICITY":0.0000785,"INCLINATION":51.9001,"RA_OF_ASC_NODE":44.5041,"ARG_OF_PERICENTER":112.4375,"MEAN_ANOMALY":247.667,"EPHEMERIS_TYPE":0,"NORAD_CAT_ID":64517,"ELEMENT_SET_NO":999,"REV_AT_EPOCH":5839,"BSTAR":0.00032791,"MEAN_MOTION_DOT":0.0000228,"MEAN_MOTION_DDOT":0},{"OBJECT_NAME":"KUIPER-00058","OBJECT_ID":"2025-134U","EPOCH":"2026-07-10T00:03:32.380704","CLASSIFICATION_TYPE":"U","MEAN_MOTION":14.79924458,"ECCENTRICITY":0.00006328,"INCLINATION":51.9001,"RA_OF_ASC_NODE":44.6772,"ARG_OF_PERICENTER":115.4747,"MEAN_ANOMALY":244.6281,"EPHEMERIS_TYPE":0,"NORAD_CAT_ID":64518,"ELEMENT_SET_NO":999,"REV_AT_EPOCH":5829,"BSTAR":0.00032243819,"MEAN_MOTION_DOT":0.00002237,"MEAN_MOTION_DDOT":0},{"OBJECT_NAME":"KUIPER-00059","OBJECT_ID":"2025-134V","EPOCH":"2026-07-10T00:11:18.454272","CLASSIFICATION_TYPE":"U","MEAN_MOTION":14.79932012,"ECCENTRICITY":0.00008126,"INCLINATION":51.8998,"RA_OF_ASC_NODE":39.694,"ARG_OF_PERICENTER":109.6047,"MEAN_ANOMALY":250.5003,"EPHEMERIS_TYPE":0,"NORAD_CAT_ID":64519,"ELEMENT_SET_NO":999,"REV_AT_EPOCH":5836,"BSTAR":0.00032340643,"MEAN_MOTION_DOT":0.00002245,"MEAN_MOTION_DDOT":0},{"OBJECT_NAME":"KUIPER-00060","OBJECT_ID":"2025-134W","EPOCH":"2026-07-10T23:41:20.414112","CLASSIFICATION_TYPE":"U","MEAN_MOTION":14.79936445,"ECCENTRICITY":0.0000612,"INCLINATION":51.9018,"RA_OF_ASC_NODE":35.4275,"ARG_OF_PERICENTER":98.6251,"MEAN_ANOMALY":261.4781,"EPHEMERIS_TYPE":0,"NORAD_CAT_ID":64520,"ELEMENT_SET_NO":999,"REV_AT_EPOCH":5849,"BSTAR":0.00024144,"MEAN_MOTION_DOT":0.0000162,"MEAN_MOTION_DDOT":0},{"OBJECT_NAME":"KUIPER-00061","OBJECT_ID":"2025-134X","EPOCH":"2026-07-11T05:10:00.311232","CLASSIFICATION_TYPE":"U","MEAN_MOTION":14.79902092,"ECCENTRICITY":0.0000849,"INCLINATION":51.9012,"RA_OF_ASC_NODE":41.8698,"ARG_OF_PERICENTER":93.8137,"MEAN_ANOMALY":266.2923,"EPHEMERIS_TYPE":0,"NORAD_CAT_ID":64521,"ELEMENT_SET_NO":999,"REV_AT_EPOCH":5842,"BSTAR":0.00031211,"MEAN_MOTION_DOT":0.00002157,"MEAN_MOTION_DDOT":0}]}
